[{"OBJECT_NAME":"ONEWEB-0261","OBJECT_ID":"2021-060N","EPOCH":"2026-03-09T21:11:44.919456","MEAN_MOTION":13.16591392,"ECCENTRICITY":0.00017829,"INCLINATION":87.8996,"RA_OF_ASC_NODE":248.5388,"ARG_OF_PERICENTER":108.0709,"MEAN_ANOMALY":252.0616,"EPHEMERIS_TYPE":0,"CLASSIFICATION_TYPE":"U","NORAD_CAT_ID":48979,"ELEMENT_SET_NO":999,"REV_AT_EPOCH":22659,"BSTAR":0.00012850745,"MEAN_MOTION_DOT":6.2e-7,"MEAN_MOTION_DDOT":0},{"OBJECT_NAME":"DELTA 1 DEB","OBJECT_ID":"1975-052LN","EPOCH":"2026-03-07T03:15:57.088224","MEAN_MOTION":13.3106575,"ECCENTRICITY":0.00731452,"INCLINATION":99.8557,"RA_OF_ASC_NODE":194.0823,"ARG_OF_PERICENTER":280.3305,"MEAN_ANOMALY":78.9578,"EPHEMERIS_TYPE":0,"CLASSIFICATION_TYPE":"U","NORAD_CAT_ID":42629,"ELEMENT_SET_NO":999,"REV_AT_EPOCH":5382,"BSTAR":0.00033853419,"MEAN_MOTION_DOT":1.2e-6,"MEAN_MOTION_DDOT":0}]
